[{"OBJECT_NAME":"GUOWANG GROUP 20 OBJECT D","OBJECT_ID":"2026-047D","EPOCH":"2026-04-02T13:48:14.018400","MEAN_MOTION":13.8659404,"ECCENTRICITY":7.103e-5,"INCLINATION":50.0067,"RA_OF_ASC_NODE":333.7806,"ARG_OF_PERICENTER":245.036,"MEAN_ANOMALY":115.0463,"EPHEMERIS_TYPE":0,"CLASSIFICATION_TYPE":"U","NORAD_CAT_ID":68132,"ELEMENT_SET_NO":999,"REV_AT_EPOCH":290,"BSTAR":5.1916391e-5,"MEAN_MOTION_DOT":-8.4e-7,"MEAN_MOTION_DDOT":0},{"OBJECT_NAME":"GUOWANG GROUP 20 OBJECT E","OBJECT_ID":"2026-047E","EPOCH":"2026-04-03T00:06:50.722272","MEAN_MOTION":13.85521979,"ECCENTRICITY":8.265e-5,"INCLINATION":50.0078,"RA_OF_ASC_NODE":332.0369,"ARG_OF_PERICENTER":23.123,"MEAN_ANOMALY":336.9704,"EPHEMERIS_TYPE":0,"CLASSIFICATION_TYPE":"U","NORAD_CAT_ID":68133,"ELEMENT_SET_NO":999,"REV_AT_EPOCH":297,"BSTAR":4.8670636e-5,"MEAN_MOTION_DOT":-8.9e-7,"MEAN_MOTION_DDOT":0},{"OBJECT_NAME":"GUOWANG GROUP 20 OBJECT F","OBJECT_ID":"2026-047F","EPOCH":"2026-04-02T13:36:24.060096","MEAN_MOTION":13.8719072,"ECCENTRICITY":6.29e-5,"INCLINATION":50.0093,"RA_OF_ASC_NODE":333.7419,"ARG_OF_PERICENTER":256.4099,"MEAN_ANOMALY":103.6728,"EPHEMERIS_TYPE":0,"CLASSIFICATION_TYPE":"U","NORAD_CAT_ID":68134,"ELEMENT_SET_NO":999,"REV_AT_EPOCH":290,"BSTAR":9.5092278e-5,"MEAN_MOTION_DOT":-3.3e-7,"MEAN_MOTION_DDOT":0},{"OBJECT_NAME":"GUOWANG GROUP 20 OBJECT G","OBJECT_ID":"2026-047G","EPOCH":"2026-04-03T22:33:32.215680","MEAN_MOTION":13.84351793,"ECCENTRICITY":0.00052059,"INCLINATION":50.0089,"RA_OF_ASC_NODE":328.386,"ARG_OF_PERICENTER":347.4651,"MEAN_ANOMALY":12.6115,"EPHEMERIS_TYPE":0,"CLASSIFICATION_TYPE":"U","NORAD_CAT_ID":68135,"ELEMENT_SET_NO":999,"REV_AT_EPOCH":310,"BSTAR":0.00015438122,"MEAN_MOTION_DOT":3.0e-7,"MEAN_MOTION_DDOT":0},{"OBJECT_NAME":"GUOWANG GROUP 20 OBJECT H","OBJECT_ID":"2026-047H","EPOCH":"2026-04-02T11:48:51.915456","MEAN_MOTION":13.87381469,"ECCENTRICITY":9.093e-5,"INCLINATION":50.0086,"RA_OF_ASC_NODE":334.0113,"ARG_OF_PERICENTER":305.9014,"MEAN_ANOMALY":54.1799,"EPHEMERIS_TYPE":0,"CLASSIFICATION_TYPE":"U","NORAD_CAT_ID":68136,"ELEMENT_SET_NO":999,"REV_AT_EPOCH":289,"BSTAR":4.8250788e-5,"MEAN_MOTION_DOT":-8.8e-7,"MEAN_MOTION_DDOT":0},{"OBJECT_NAME":"GUOWANG GROUP 20 OBJECT J","OBJECT_ID":"2026-047J","EPOCH":"2026-04-02T16:56:00.731328","MEAN_MOTION":13.87066479,"ECCENTRICITY":6.698e-5,"INCLINATION":50.0058,"RA_OF_ASC_NODE":333.1317,"ARG_OF_PERICENTER":182.6269,"MEAN_ANOMALY":177.4625,"EPHEMERIS_TYPE":0,"CLASSIFICATION_TYPE":"U","NORAD_CAT_ID":68137,"ELEMENT_SET_NO":999,"REV_AT_EPOCH":293,"BSTAR":2.4623265e-5,"MEAN_MOTION_DOT":-1.16e-6,"MEAN_MOTION_DDOT":0},{"OBJECT_NAME":"CZ-8A R/B","OBJECT_ID":"2026-047K","EPOCH":"2026-04-04T07:15:27.933696","MEAN_MOTION":14.12233379,"ECCENTRICITY":0.00447638,"INCLINATION":49.9533,"RA_OF_ASC_NODE":324.7658,"ARG_OF_PERICENTER":226.2116,"MEAN_ANOMALY":133.5085,"EPHEMERIS_TYPE":0,"CLASSIFICATION_TYPE":"U","NORAD_CAT_ID":68138,"ELEMENT_SET_NO":999,"REV_AT_EPOCH":317,"BSTAR":0.00012801095,"MEAN_MOTION_DOT":8.5e-7,"MEAN_MOTION_DDOT":0},{"OBJECT_NAME":"SHIYAN-30 03","OBJECT_ID":"2026-048A","EPOCH":"2026-04-04T03:19:17.654592","MEAN_MOTION":14.91775399,"ECCENTRICITY":0.00024831,"INCLINATION":35.0014,"RA_OF_ASC_NODE":351.5577,"ARG_OF_PERICENTER":61.9613,"MEAN_ANOMALY":298.1343,"EPHEMERIS_TYPE":0,"CLASSIFICATION_TYPE":"U","NORAD_CAT_ID":68139,"ELEMENT_SET_NO":999,"REV_AT_EPOCH":330,"BSTAR":0.00049028129,"MEAN_MOTION_DOT":5.011e-5,"MEAN_MOTION_DDOT":0},{"OBJECT_NAME":"SHIYAN-30 04","OBJECT_ID":"2026-048B","EPOCH":"2026-04-04T03:20:17.654208","MEAN_MOTION":14.91773124,"ECCENTRICITY":9.534e-5,"INCLINATION":34.9929,"RA_OF_ASC_NODE":351.5554,"ARG_OF_PERICENTER":68.088,"MEAN_ANOMALY":291.9926,"EPHEMERIS_TYPE":0,"CLASSIFICATION_TYPE":"U","NORAD_CAT_ID":68140,"ELEMENT_SET_NO":999,"REV_AT_EPOCH":330,"BSTAR":0.00047178373,"MEAN_MOTION_DOT":4.821e-5,"MEAN_MOTION_DDOT":0},{"OBJECT_NAME":"CZ-2D R/B","OBJECT_ID":"2026-048C","EPOCH":"2026-04-04T03:37:55.051104","MEAN_MOTION":14.95594512,"ECCENTRICITY":0.0015798,"INCLINATION":35.1309,"RA_OF_ASC_NODE":351.0996,"ARG_OF_PERICENTER":189.9994,"MEAN_ANOMALY":170.0402,"EPHEMERIS_TYPE":0,"CLASSIFICATION_TYPE":"U","NORAD_CAT_ID":68141,"ELEMENT_SET_NO":999,"REV_AT_EPOCH":331,"BSTAR":0.00026274627,"MEAN_MOTION_DOT":2.95e-5,"MEAN_MOTION_DDOT":0},{"OBJECT_NAME":"STARLINK-36604","OBJECT_ID":"2026-049A","EPOCH":"2026-04-04T04:35:04.253280","MEAN_MOTION":15.75333702,"ECCENTRICITY":0.00015741,"INCLINATION":97.2844,"RA_OF_ASC_NODE":114.7098,"ARG_OF_PERICENTER":89.6069,"MEAN_ANOMALY":270.5376,"EPHEMERIS_TYPE":0,"CLASSIFICATION_TYPE":"U","NORAD_CAT_ID":68142,"ELEMENT_SET_NO":999,"REV_AT_EPOCH":343,"BSTAR":0.0019009015,"MEAN_MOTION_DOT":0.00295256,"MEAN_MOTION_DDOT":0},{"OBJECT_NAME":"STARLINK-36995","OBJECT_ID":"2026-049B","EPOCH":"2026-04-04T06:00:02.000160","MEAN_MOTION":15.7520096,"ECCENTRICITY":0.00012273,"INCLINATION":97.2848,"RA_OF_ASC_NODE":114.7831,"ARG_OF_PERICENTER":93.4871,"MEAN_ANOMALY":267.0638,"EPHEMERIS_TYPE":0,"CLASSIFICATION_TYPE":"U","NORAD_CAT_ID":68143,"ELEMENT_SET_NO":999,"REV_AT_EPOCH":473,"BSTAR":-0.00044554242,"MEAN_MOTION_DOT":-0.00066104,"MEAN_MOTION_DDOT":0},{"OBJECT_NAME":"STARLINK-37020","OBJECT_ID":"2026-049C","EPOCH":"2026-04-04T06:00:02.000160","MEAN_MOTION":15.75163425,"ECCENTRICITY":0.00013329,"INCLINATION":97.285,"RA_OF_ASC_NODE":114.8068,"ARG_OF_PERICENTER":78.5965,"MEAN_ANOMALY":335.9153,"EPHEMERIS_TYPE":0,"CLASSIFICATION_TYPE":"U","NORAD_CAT_ID":68144,"ELEMENT_SET_NO":999,"REV_AT_EPOCH":473,"BSTAR":0.00035393662,"MEAN_MOTION_DOT":0.00052929,"MEAN_MOTION_DDOT":0},{"OBJECT_NAME":"STARLINK-36244","OBJECT_ID":"2026-049D","EPOCH":"2026-04-04T04:48:16.312320","MEAN_MOTION":15.75314207,"ECCENTRICITY":0.00013487,"INCLINATION":97.2844,"RA_OF_ASC_NODE":114.6965,"ARG_OF_PERICENTER":110.2165,"MEAN_ANOMALY":249.9245,"EPHEMERIS_TYPE":0,"CLASSIFICATION_TYPE":"U","NORAD_CAT_ID":68145,"ELEMENT_SET_NO":999,"REV_AT_EPOCH":343,"BSTAR":0.0014826586,"MEAN_MOTION_DOT":0.00228253,"MEAN_MOTION_DDOT":0},{"OBJECT_NAME":"STARLINK-36980","OBJECT_ID":"2026-049E","EPOCH":"2026-04-04T05:40:44.463072","MEAN_MOTION":15.80990176,"ECCENTRICITY":0.00012236,"INCLINATION":97.2854,"RA_OF_ASC_NODE":114.8011,"ARG_OF_PERICENTER":95.8387,"MEAN_ANOMALY":264.3021,"EPHEMERIS_TYPE":0,"CLASSIFICATION_TYPE":"U","NORAD_CAT_ID":68146,"ELEMENT_SET_NO":999,"REV_AT_EPOCH":344,"BSTAR":0.0015603217,"MEAN_MOTION_DOT":0.00312152,"MEAN_MOTION_DDOT":0},{"OBJECT_NAME":"STARLINK-37055","OBJECT_ID":"2026-049F","EPOCH":"2026-04-04T05:42:54.100224","MEAN_MOTION":15.80969705,"ECCENTRICITY":7.013e-5,"INCLINATION":97.2857,"RA_OF_ASC_NODE":114.799,"ARG_OF_PERICENTER":79.8177,"MEAN_ANOMALY":280.317,"EPHEMERIS_TYPE":0,"CLASSIFICATION_TYPE":"U","NORAD_CAT_ID":68147,"ELEMENT_SET_NO":999,"REV_AT_EPOCH":344,"BSTAR":0.0011448061,"MEAN_MOTION_DOT":0.00226517,"MEAN_MOTION_DDOT":0}]
